     2.10           G: GLONASS NAV DATA                     RINEX VERSION / TYPE
teqc  2015Jun23                         20220221 01:25:44UTCPGM / RUN BY / DATE
Linux 2.4.21-27.ELsmp|Opteron|gcc -static|Linux x86_64|=+   COMMENT
  2022     1    28   -4.656612873077D-10                    CORR TO SYSTEM TIME
                                                            END OF HEADER
 7 22  1 29  5 15  0.0 3.113690763712D-05 0.000000000000D+00 1.800000000000D+04
    2.849992675781D+03-1.958408355713D-01 9.313225746155D-10 0.000000000000D+00
    2.130070117188D+04 1.870737075806D+00 9.313225746155D-10 5.000000000000D+00
    1.373840771484D+04-2.872025489807D+00-3.725290298462D-09 0.000000000000D+00
 6 22  1 29  5 15  0.0-2.966262400150D-05-1.818989403546D-12 1.800000000000D+04
   -5.147373535156D+03 2.024526596069D-01 2.793967723846D-09 0.000000000000D+00
    2.479733544922D+04-3.752164840698D-01 3.725290298462D-09-4.000000000000D+00
   -2.938358886719D+03-3.535619735718D+00-2.793967723846D-09 0.000000000000D+00
 9 22  1 29  5 15  0.0 3.659538924694D-05 2.728484105319D-12 1.800000000000D+04
   -8.618457031250D+01-2.270866394043D+00-0.000000000000D+00 0.000000000000D+00
    1.363200439453D+04-1.880856513977D+00-9.313225746155D-10-2.000000000000D+00
    2.158713281250D+04 1.172921180725D+00-2.793967723846D-09 0.000000000000D+00
20 22  1 29  5 15  0.0-6.391014903784D-05-9.094947017729D-13 1.800000000000D+04
   -1.429047949219D+04-2.170663833618D+00 2.793967723846D-09 0.000000000000D+00
    1.250843408203D+04 8.797998428345D-01 2.793967723846D-09 2.000000000000D+00
   -1.699058154297D+04 2.475355148315D+00 0.000000000000D+00 0.000000000000D+00
 5 22  1 29  5 45  0.0 8.678250014782D-05 9.094947017729D-13 1.980000000000D+04
   -1.070923974609D+04 1.986055374146D-01 1.862645149231D-09 0.000000000000D+00
    6.418640136719D+03-3.042061805725D+00 1.862645149231D-09 1.000000000000D+00
   -2.222891015625D+04-9.760894775391D-01 1.862645149231D-09 0.000000000000D+00
10 22  1 29  5 45  0.0-7.932540029287D-05-0.000000000000D+00 1.980000000000D+04
    1.108824365234D+04-1.865711212158D+00-0.000000000000D+00 0.000000000000D+00
    1.602346142578D+04-1.264560699463D+00 0.000000000000D+00-7.000000000000D+00
    1.640174804688D+04 2.501751899719D+00-3.725290298462D-09 0.000000000000D+00
 7 22  1 29  5 45  0.0 3.113783895969D-05 0.000000000000D+00 1.980000000000D+04
    2.798617187500D+03 1.056699752808D-01 1.862645149231D-09 0.000000000000D+00
    2.401010791016D+04 1.110992431641D+00 1.862645149231D-09 5.000000000000D+00
    8.104122558594D+03-3.347717285156D+00-3.725290298462D-09 0.000000000000D+00
 6 22  1 29  5 45  0.0-2.966634929180D-05-1.818989403546D-12 1.980000000000D+04
   -4.788718261719D+03 1.559181213379D-01 3.725290298462D-09 0.000000000000D+00
    2.333138232422D+04-1.243242263794D+00 2.793967723846D-09-4.000000000000D+00
   -9.106377929688D+03-3.273189544678D+00-1.862645149231D-09 0.000000000000D+00
20 22  1 29  5 45  0.0-6.391201168299D-05-9.094947017729D-13 1.980000000000D+04
   -1.751236914062D+04-1.390136718750D+00 2.793967723846D-09 0.000000000000D+00
    1.414892724609D+04 8.994245529175D-01 9.313225746155D-10 2.000000000000D+00
   -1.193383154297D+04 3.106684684753D+00 0.000000000000D+00 0.000000000000D+00
 9 22  1 29  5 45  0.0 3.659911453724D-05 1.818989403546D-12 1.986000000000D+04
   -4.556848632812D+03-2.660518646240D+00-0.000000000000D+00 0.000000000000D+00
    1.043957226562D+04-1.631390571594D+00-1.862645149231D-09-2.000000000000D+00
    2.283875341797D+04 2.085866928101D-01-1.862645149231D-09 0.000000000000D+00
21 22  1 29  5 45  0.0-2.737706527114D-04-2.728484105319D-12 2.040000000000D+04
    9.451909179688D+02-2.784132957458D+00 2.793967723846D-09 0.000000000000D+00
    1.110878808594D+04 1.466874122620D+00 4.656612873077D-09 4.000000000000D+00
   -2.293880029297D+04 5.934591293335D-01 0.000000000000D+00 0.000000000000D+00
 8 22  1 29  5 45  0.0-6.329454481602D-05 0.000000000000D+00 2.091000000000D+04
    9.195840820312D+03-4.477024078369D-02-0.000000000000D+00 0.000000000000D+00
    1.213863525391D+04 2.796358108521D+00-0.000000000000D+00 6.000000000000D+00
    2.050961474609D+04-1.641838073730D+00-3.725290298462D-09 0.000000000000D+00
10 22  1 29  6 15  0.0-7.932726293802D-05-0.000000000000D+00 2.160000000000D+04
    7.131669921875D+03-2.504842758179D+00-0.000000000000D+00 0.000000000000D+00
    1.377652246094D+04-1.191186904907D+00-0.000000000000D+00-7.000000000000D+00
    2.020977246094D+04 1.701930046082D+00-3.725290298462D-09 0.000000000000D+00
 7 22  1 29  6 15  0.0 3.113783895969D-05 0.000000000000D+00 2.160000000000D+04
    3.095813476562D+03 1.842708587646D-01 2.793967723846D-09 0.000000000000D+00
    2.522843554688D+04 2.321529388428D-01 1.862645149231D-09 5.000000000000D+00
    1.842301757812D+03-3.564623832703D+00-3.725290298462D-09 0.000000000000D+00
 6 22  1 29  6 15  0.0-2.967100590467D-05-1.818989403546D-12 2.160000000000D+04
   -4.720843261719D+03-1.138343811035D-01 3.725290298462D-09 0.000000000000D+00
    2.039267626953D+04-1.993517875671D+00 2.793967723846D-09-4.000000000000D+00
   -1.456954736328D+04-2.757596969604D+00-0.000000000000D+00 0.000000000000D+00
 8 22  1 29  6 15  0.0-6.329361349344D-05 0.000000000000D+00 2.160000000000D+04
    9.461466308594D+03 3.152885437012D-01 0.000000000000D+00 0.000000000000D+00
    1.673715283203D+04 2.271431922913D+00 0.000000000000D+00 6.000000000000D+00
    1.680263769531D+04-2.450574874878D+00-3.725290298462D-09 0.000000000000D+00
20 22  1 29  6 15  0.0-6.391387432814D-05-9.094947017729D-13 2.160000000000D+04
   -1.926216845703D+04-5.551137924194D-01 2.793967723846D-09 0.000000000000D+00
    1.558453027344D+04 6.509342193604D-01-0.000000000000D+00 2.000000000000D+00
   -5.951430664062D+03 3.497121810913D+00 0.000000000000D+00 0.000000000000D+00
21 22  1 29  6 15  0.0-2.737753093243D-04-2.728484105319D-12 2.160000000000D+04
   -3.675335449219D+03-2.312733650208D+00 3.725290298462D-09 0.000000000000D+00
    1.400967480469D+04 1.719368934631D+00 2.793967723846D-09 4.000000000000D+00
   -2.099753076172D+04 1.549442291260D+00 0.000000000000D+00 0.000000000000D+00
10 22  1 29  6 45  0.0-7.932819426060D-05-0.000000000000D+00 2.340000000000D+04
    2.191794921875D+03-2.943318367004D+00-9.313225746155D-10 0.000000000000D+00
    1.186519335938D+04-9.023714065552D-01-1.862645149231D-09-7.000000000000D+00
    2.244983544922D+04 7.710084915161D-01-2.793967723846D-09 0.000000000000D+00
 7 22  1 29  6 45  0.0 3.113783895969D-05-0.000000000000D+00 2.340000000000D+04
    3.314705078125D+03 1.893520355225D-02 3.725290298462D-09 0.000000000000D+00
    2.484349365234D+04-6.506233215332D-01 1.862645149231D-09 5.000000000000D+00
   -4.562295410156D+03-3.505212783813D+00-1.862645149231D-09 0.000000000000D+00
 6 22  1 29  6 45  0.0-2.967473119497D-05-1.818989403546D-12 2.340000000000D+04
   -5.296976562500D+03-5.466251373291D-01 3.725290298462D-09 0.000000000000D+00
    1.628392626953D+04-2.529577255249D+00 1.862645149231D-09-4.000000000000D+00
   -1.890562109375D+04-2.029047012329D+00 0.000000000000D+00 0.000000000000D+00
 8 22  1 29  6 45  0.0-6.329361349344D-05 0.000000000000D+00 2.340000000000D+04
    1.021870019531D+04 4.895162582397D-01 1.862645149231D-09 0.000000000000D+00
    2.018986718750D+04 1.537695884705D+00 9.313225746155D-10 6.000000000000D+00
    1.180051416016D+04-3.071503639221D+00-3.725290298462D-09 0.000000000000D+00
20 22  1 29  6 45  0.0-6.391573697329D-05-9.094947017729D-13 2.340000000000D+04
   -1.955015332031D+04 2.147731781006D-01 9.313225746155D-10 0.000000000000D+00
    1.634052685547D+04 1.510353088379D-01-1.862645149231D-09 2.000000000000D+00
    4.926103515625D+02 3.616278648376D+00 0.000000000000D+00 0.000000000000D+00
21 22  1 29  6 45  0.0-2.737808972597D-04-2.728484105319D-12 2.340000000000D+04
   -7.276001464844D+03-1.667739868164D+00 3.725290298462D-09 0.000000000000D+00
    1.714685253906D+04 1.720484733582D+00 9.313225746155D-10 4.000000000000D+00
   -1.743305126953D+04 2.385335922241D+00 0.000000000000D+00 0.000000000000D+00
 8 22  1 29  7 15  0.0-6.329361349344D-05-0.000000000000D+00 2.520000000000D+04
    1.107975048828D+04 4.252443313599D-01 2.793967723846D-09 0.000000000000D+00
    2.220711962891D+04 6.949148178101D-01 9.313225746155D-10 6.000000000000D+00
    5.887369628906D+03-3.456129074097D+00-3.725290298462D-09 0.000000000000D+00
 7 22  1 29  7 15  0.0 3.113783895969D-05-0.000000000000D+00 2.520000000000D+04
    3.031337890625D+03-3.660602569580D-01 4.656612873077D-09 0.000000000000D+00
    2.295339648438D+04-1.422019958496D+00 1.862645149231D-09 5.000000000000D+00
   -1.061268701172D+04-3.173561096191D+00-9.313225746155D-10 0.000000000000D+00
 6 22  1 29  7 15  0.0-2.967845648527D-05-1.818989403546D-12 2.520000000000D+04
   -6.732153808594D+03-1.051326751709D+00 2.793967723846D-09 0.000000000000D+00
    1.145360156250D+04-2.788097381592D+00 9.313225746155D-10-4.000000000000D+00
   -2.178005322266D+04-1.144126892090D+00 9.313225746155D-10 0.000000000000D+00
20 22  1 29  7 15  0.0-6.391759961843D-05-9.094947017729D-13 2.520000000000D+04
   -1.859189892578D+04 8.142032623291D-01 0.000000000000D+00 0.000000000000D+00
    1.601373632812D+04-5.385379791260D-01-2.793967723846D-09 2.000000000000D+00
    6.898489257812D+03 3.455035209656D+00 0.000000000000D+00 0.000000000000D+00
21 22  1 29  7 15  0.0-2.737864851952D-04-2.728484105319D-12 2.520000000000D+04
   -9.640734375000D+03-9.588394165039D-01 3.725290298462D-09 0.000000000000D+00
    2.003281982422D+04 1.438860893250D+00 0.000000000000D+00 4.000000000000D+00
   -1.252134960938D+04 3.036664009094D+00 0.000000000000D+00 0.000000000000D+00
22 22  1 29  7 15  0.0-1.611830666661D-04-1.818989403546D-12 2.598000000000D+04
    3.022013183594D+03-1.961959838867D+00 4.656612873077D-09 0.000000000000D+00
    1.178823339844D+04 2.366929054260D+00 2.793967723846D-09-3.000000000000D+00
   -2.240846093750D+04 9.898929595947D-01 0.000000000000D+00 0.000000000000D+00
